{
  "type": "FeatureCollection",
  "features": [
    {
      "type": "Feature",
      "properties": {
        "norad_id": 64694,
        "name": "GOSAT-GW (IBUKI GW)",
        "group": "resource",
        "lat": -81.8795458072555,
        "lon": 29.246652367194663,
        "alt_km": 677.2150109761851,
        "timestamp": "2025-12-22T05:49:03.140328+00:00",
        "meta_object_name": "GOSAT-GW (IBUKI GW)",
        "meta_object_id": "2025-141A",
        "meta_epoch": "2025-12-21T20:24:50.681376",
        "meta_mean_motion": 14.67561999,
        "meta_eccentricity": 0.0001432,
        "meta_inclination": 98.0436,
        "meta_ra_of_asc_node": 291.1987,
        "meta_arg_of_pericenter": 84.0027,
        "meta_mean_anomaly": 276.1341,
        "meta_ephemeris_type": 0,
        "meta_classification_type": "U",
        "meta_norad_cat_id": 64694,
        "meta_element_set_no": 999,
        "meta_rev_at_epoch": 2583,
        "meta_bstar": 0.00020185,
        "meta_mean_motion_dot": 1.098e-05,
        "meta_mean_motion_ddot": 0,
        "tle_line1": "1 64694U 25141A   25355.85058659  .00001098  00000+0  20185-3 0  9994",
        "tle_line2": "2 64694  98.0436 291.1987 0001432  84.0027 276.1341 14.67561999 25838"
      },
      "geometry": {
        "type": "Point",
        "coordinates": [
          29.246652367194663,
          -81.8795458072555
        ]
      }
    },
    {
      "type": "Feature",
      "properties": {
        "norad_id": 64876,
        "name": "IONOSFERA-M 3",
        "group": "resource",
        "lat": 43.075515463285036,
        "lon": 145.95459103923798,
        "alt_km": 816.9199192041942,
        "timestamp": "2025-12-22T05:49:03.140339+00:00",
        "meta_object_name": "IONOSFERA-M 3",
        "meta_object_id": "2025-155A",
        "meta_epoch": "2025-12-21T20:43:55.374240",
        "meta_mean_motion": 14.21443085,
        "meta_eccentricity": 0.0001964,
        "meta_inclination": 98.5796,
        "meta_ra_of_asc_node": 317.4722,
        "meta_arg_of_pericenter": 45.0216,
        "meta_mean_anomaly": 315.1121,
        "meta_ephemeris_type": 0,
        "meta_classification_type": "U",
        "meta_norad_cat_id": 64876,
        "meta_element_set_no": 999,
        "meta_rev_at_epoch": 2121,
        "meta_bstar": 4.4029e-05,
        "meta_mean_motion_dot": 5.4e-07,
        "meta_mean_motion_ddot": 0,
        "tle_line1": "1 64876U 25155A   25355.86383535  .00000054  00000+0  44029-4 0  9991",
        "tle_line2": "2 64876  98.5796 317.4722 0001964  45.0216 315.1121 14.21443085 21213"
      },
      "geometry": {
        "type": "Point",
        "coordinates": [
          145.95459103923798,
          43.075515463285036
        ]
      }
    },
    {
      "type": "Feature",
      "properties": {
        "norad_id": 64877,
        "name": "IONOSFERA-M 4",
        "group": "resource",
        "lat": -42.59927957222299,
        "lon": -34.261315573738706,
        "alt_km": 827.1704862836759,
        "timestamp": "2025-12-22T05:49:03.140349+00:00",
        "meta_object_name": "IONOSFERA-M 4",
        "meta_object_id": "2025-155B",
        "meta_epoch": "2025-12-21T21:34:24.481344",
        "meta_mean_motion": 14.2144426,
        "meta_eccentricity": 0.0001369,
        "meta_inclination": 98.5794,
        "meta_ra_of_asc_node": 317.4256,
        "meta_arg_of_pericenter": 54.3771,
        "meta_mean_anomaly": 305.7534,
        "meta_ephemeris_type": 0,
        "meta_classification_type": "U",
        "meta_norad_cat_id": 64877,
        "meta_element_set_no": 999,
        "meta_rev_at_epoch": 2121,
        "meta_bstar": 4.3247e-05,
        "meta_mean_motion_dot": 5.2e-07,
        "meta_mean_motion_ddot": 0,
        "tle_line1": "1 64877U 25155B   25355.89889446  .00000052  00000+0  43247-4 0  9996",
        "tle_line2": "2 64877  98.5794 317.4256 0001369  54.3771 305.7534 14.21444260 21211"
      },
      "geometry": {
        "type": "Point",
        "coordinates": [
          -34.261315573738706,
          -42.59927957222299
        ]
      }
    },
    {
      "type": "Feature",
      "properties": {
        "norad_id": 64899,
        "name": "MICROCARB",
        "group": "resource",
        "lat": 39.651204919914,
        "lon": 64.74040306334618,
        "alt_km": 648.3943982803539,
        "timestamp": "2025-12-22T05:49:03.140359+00:00",
        "meta_object_name": "MICROCARB",
        "meta_object_id": "2025-156A",
        "meta_epoch": "2025-12-21T16:35:06.337248",
        "meta_mean_motion": 14.72070482,
        "meta_eccentricity": 0.0017551,
        "meta_inclination": 98.0015,
        "meta_ra_of_asc_node": 70.8926,
        "meta_arg_of_pericenter": 117.8544,
        "meta_mean_anomaly": 242.4444,
        "meta_ephemeris_type": 0,
        "meta_classification_type": "U",
        "meta_norad_cat_id": 64899,
        "meta_element_set_no": 999,
        "meta_rev_at_epoch": 2185,
        "meta_bstar": 9.624e-05,
        "meta_mean_motion_dot": 5.57e-06,
        "meta_mean_motion_ddot": 0,
        "tle_line1": "1 64899U 25156A   25355.69104557  .00000557  00000+0  96240-4 0  9993",
        "tle_line2": "2 64899  98.0015  70.8926 0017551 117.8544 242.4444 14.72070482 21857"
      },
      "geometry": {
        "type": "Point",
        "coordinates": [
          64.74040306334618,
          39.651204919914
        ]
      }
    },
    {
      "type": "Feature",
      "properties": {
        "norad_id": 64900,
        "name": "CO3D 3",
        "group": "resource",
        "lat": -72.60760008791627,
        "lon": 97.11061795769909,
        "alt_km": 513.3450976788417,
        "timestamp": "2025-12-22T05:49:03.140370+00:00",
        "meta_object_name": "CO3D 3",
        "meta_object_id": "2025-156B",
        "meta_epoch": "2025-12-21T20:39:54.808992",
        "meta_mean_motion": 15.2020039,
        "meta_eccentricity": 0.0001371,
        "meta_inclination": 97.4344,
        "meta_ra_of_asc_node": 72.0975,
        "meta_arg_of_pericenter": 74.637,
        "meta_mean_anomaly": 285.5016,
        "meta_ephemeris_type": 0,
        "meta_classification_type": "U",
        "meta_norad_cat_id": 64900,
        "meta_element_set_no": 999,
        "meta_rev_at_epoch": 2259,
        "meta_bstar": 0.00021444,
        "meta_mean_motion_dot": 4.577e-05,
        "meta_mean_motion_ddot": 0,
        "tle_line1": "1 64900U 25156B   25355.86105103  .00004577  00000+0  21444-3 0  9992",
        "tle_line2": "2 64900  97.4344  72.0975 0001371  74.6370 285.5016 15.20200390 22598"
      },
      "geometry": {
        "type": "Point",
        "coordinates": [
          97.11061795769909,
          -72.60760008791627
        ]
      }
    },
    {
      "type": "Feature",
      "properties": {
        "norad_id": 64901,
        "name": "CO3D 4",
        "group": "resource",
        "lat": -73.35201540915584,
        "lon": 98.36486254968453,
        "alt_km": 512.9839619231179,
        "timestamp": "2025-12-22T05:49:03.140380+00:00",
        "meta_object_name": "CO3D 4",
        "meta_object_id": "2025-156C",
        "meta_epoch": "2025-12-21T20:40:08.251968",
        "meta_mean_motion": 15.20207134,
        "meta_eccentricity": 0.0001286,
        "meta_inclination": 97.4341,
        "meta_ra_of_asc_node": 72.0979,
        "meta_arg_of_pericenter": 165.6644,
        "meta_mean_anomaly": 194.4628,
        "meta_ephemeris_type": 0,
        "meta_classification_type": "U",
        "meta_norad_cat_id": 64901,
        "meta_element_set_no": 999,
        "meta_rev_at_epoch": 2259,
        "meta_bstar": 0.00022763,
        "meta_mean_motion_dot": 4.864e-05,
        "meta_mean_motion_ddot": 0,
        "tle_line1": "1 64901U 25156C   25355.86120662  .00004864  00000+0  22763-3 0  9994",
        "tle_line2": "2 64901  97.4341  72.0979 0001286 165.6644 194.4628 15.20207134 22590"
      },
      "geometry": {
        "type": "Point",
        "coordinates": [
          98.36486254968453,
          -73.35201540915584
        ]
      }
    },
    {
      "type": "Feature",
      "properties": {
        "norad_id": 64902,
        "name": "CO3D 2",
        "group": "resource",
        "lat": 71.12494086005678,
        "lon": -85.174839274033,
        "alt_km": 498.02518298268933,
        "timestamp": "2025-12-22T05:49:03.140390+00:00",
        "meta_object_name": "CO3D 2",
        "meta_object_id": "2025-156D",
        "meta_epoch": "2025-12-21T16:42:32.405760",
        "meta_mean_motion": 15.20195819,
        "meta_eccentricity": 7.56e-05,
        "meta_inclination": 97.434,
        "meta_ra_of_asc_node": 71.8347,
        "meta_arg_of_pericenter": 63.7971,
        "meta_mean_anomaly": 296.3342,
        "meta_ephemeris_type": 0,
        "meta_classification_type": "U",
        "meta_norad_cat_id": 64902,
        "meta_element_set_no": 999,
        "meta_rev_at_epoch": 2256,
        "meta_bstar": 0.00013571,
        "meta_mean_motion_dot": 2.871e-05,
        "meta_mean_motion_ddot": 0,
        "tle_line1": "1 64902U 25156D   25355.69620840  .00002871  00000+0  13571-3 0  9992",
        "tle_line2": "2 64902  97.4340  71.8347 0000756  63.7971 296.3342 15.20195819 22566"
      },
      "geometry": {
        "type": "Point",
        "coordinates": [
          -85.174839274033,
          71.12494086005678
        ]
      }
    }
  ]
}